[
   {
      "name": "STARLINK-2128",
      "line1": "1 47404U 21005BH  21092.91668981 -.00064887  00000-0 -70872-3 0  9991",
      "line2": "2 47404  53.0539 215.9742 0003884  10.1905 237.6173 15.62732995 12275",
      "drg": -70.872,
      "inc": 53.0539,
      "ran": 215.9742,
      "ecc": 0.0003884,
      "aop": 10.1905,
      "man": 237.6173,
      "mmo": 15.62732995,
      "sma": 6757.90351
   },
   {
      "name": "STARLINK-2130",
      "line1": "1 47405U 21005BJ  21092.91668981  .00003912  00000-0  28147-3 0  9990",
      "line2": "2 47405  53.0523 230.0831 0001273  99.4522 104.5387 15.06385230  1755",
      "drg": 28.147,
      "inc": 53.0523,
      "ran": 230.0831,
      "ecc": 0.0001273,
      "aop": 99.4522,
      "man": 104.5387,
      "mmo": 15.0638523,
      "sma": 6925.39383
   },
   {
      "name": "STARLINK-2133",
      "line1": "1 47406U 21005BK  21092.91668981 -.00033142  00000-0 -35805-3 0  9990",
      "line2": "2 47406  53.0538 215.9521 0003852   9.1530 250.1041 15.62708620  1773",
      "drg": -35.805,
      "inc": 53.0538,
      "ran": 215.9521,
      "ecc": 0.0003852,
      "aop": 9.153,
      "man": 250.1041,
      "mmo": 15.6270862,
      "sma": 6757.97379
   },
   {
      "name": "STARLINK-2134",
      "line1": "1 47407U 21005BL  21092.91668981  .00034457  00000-0  38132-3 0  9995",
      "line2": "2 47407  53.0537 215.9549 0003721   9.5323 247.7895 15.62696417 12278",
      "drg": 38.132,
      "inc": 53.0537,
      "ran": 215.9549,
      "ecc": 0.0003721,
      "aop": 9.5323,
      "man": 247.7895,
      "mmo": 15.62696417,
      "sma": 6758.00897
   },
   {
      "name": "STARLINK-2135",
      "line1": "1 47408U 21005BM  21092.91668981  .00035294  00000-0  39036-3 0  9990",
      "line2": "2 47408  53.0536 215.9728 0003669   9.2188 241.1291 15.62699478  1775",
      "drg": 39.036,
      "inc": 53.0536,
      "ran": 215.9728,
      "ecc": 0.0003669,
      "aop": 9.2188,
      "man": 241.1291,
      "mmo": 15.62699478,
      "sma": 6758.00014
   },
   {
      "name": "STARLINK-2199",
      "line1": "1 47413U 21006A   21092.72759645  .00001430  00000-0  81522-4 0  9997",
      "line2": "2 47413  97.5013 155.4738 0012226  43.8873 316.3328 15.14324942 11581",
      "drg": 8.1522,
      "inc": 97.5013,
      "ran": 155.4738,
      "ecc": 0.0012226,
      "aop": 43.8873,
      "man": 316.3328,
      "mmo": 15.14324942,
      "sma": 6901.16574
   },
   {
      "name": "STARLINK-2200",
      "line1": "1 47414U 21006B   21092.72783519 -.00000017  00000-0  26627-5 0  9992",
      "line2": "2 47414  97.5007 155.4712 0012730  45.4045 314.8223 15.14325404 10610",
      "drg": 0.26627,
      "inc": 97.5007,
      "ran": 155.4712,
      "ecc": 0.001273,
      "aop": 45.4045,
      "man": 314.8223,
      "mmo": 15.14325404,
      "sma": 6901.16434
   },
   {
      "name": "STARLINK-2201",
      "line1": "1 47415U 21006C   21092.72943144  .00001848  00000-0  10433-3 0  9993",
      "line2": "2 47415  97.5008 155.4680 0012432  44.3808 315.8418 15.14329352 10613",
      "drg": 10.433,
      "inc": 97.5008,
      "ran": 155.468,
      "ecc": 0.0012432,
      "aop": 44.3808,
      "man": 315.8418,
      "mmo": 15.14329352,
      "sma": 6901.15234
   },
   {
      "name": "STARLINK-2202",
      "line1": "1 47416U 21006D   21092.72965862 -.00000390  00000-0 -17686-4 0  9996",
      "line2": "2 47416  97.5009 155.4683 0012322  45.1230 315.1001 15.14323179 10616",
      "drg": -1.7686,
      "inc": 97.5009,
      "ran": 155.4683,
      "ecc": 0.0012322,
      "aop": 45.123,
      "man": 315.1001,
      "mmo": 15.14323179,
      "sma": 6901.1711
   },
   {
      "name": "STARLINK-2203",
      "line1": "1 47417U 21006E   21092.72851513 -.00000692  00000-0 -34148-4 0  9991",
      "line2": "2 47417  97.5010 155.4692 0011781  52.6395 307.5908 15.14325866 10618",
      "drg": -3.4148,
      "inc": 97.501,
      "ran": 155.4692,
      "ecc": 0.0011781,
      "aop": 52.6395,
      "man": 307.5908,
      "mmo": 15.14325866,
      "sma": 6901.16293
   },
   {
      "name": "STARLINK-2204",
      "line1": "1 47418U 21006F   21092.72830047  .00000969  00000-0  56401-4 0  9992",
      "line2": "2 47418  97.5010 155.4709 0013111  45.9606 314.2704 15.14320604 10611",
      "drg": 5.6401,
      "inc": 97.501,
      "ran": 155.4709,
      "ecc": 0.0013111,
      "aop": 45.9606,
      "man": 314.2704,
      "mmo": 15.14320604,
      "sma": 6901.17892
   },
   {
      "name": "STARLINK-2205",
      "line1": "1 47419U 21006G   21092.79481329  .00000284  00000-0  19078-4 0  9994",
      "line2": "2 47419  97.5009 155.5340 0011857  45.9855 314.2352 15.14329833 10626",
      "drg": 1.9078,
      "inc": 97.5009,
      "ran": 155.534,
      "ecc": 0.0011857,
      "aop": 45.9855,
      "man": 314.2352,
      "mmo": 15.14329833,
      "sma": 6901.15088
   },
   {
      "name": "STARLINK-2206",
      "line1": "1 47420U 21006H   21092.72897469 -.00000638  00000-0 -31203-4 0  9994",
      "line2": "2 47420  97.5011 155.4705 0012389  45.4411 314.7830 15.14323734 10618",
      "drg": -3.1203,
      "inc": 97.5011,
      "ran": 155.4705,
      "ecc": 0.0012389,
      "aop": 45.4411,
      "man": 314.783,
      "mmo": 15.14323734,
      "sma": 6901.16941
   },
   {
      "name": "STARLINK-2207",
      "line1": "1 47421U 21006J   21092.72920009 -.00000217  00000-0 -82483-5 0  9992",
      "line2": "2 47421  97.5010 155.4708 0012411  48.3715 311.8577 15.14328076 10616",
      "drg": -0.82483,
      "inc": 97.501,
      "ran": 155.4708,
      "ecc": 0.0012411,
      "aop": 48.3715,
      "man": 311.8577,
      "mmo": 15.14328076,
      "sma": 6901.15622
   },
   {
      "name": "STARLINK-2208",
      "line1": "1 47422U 21006K   21092.72805620 -.00000550  00000-0 -26430-4 0  9993",
      "line2": "2 47422  97.5017 155.4724 0011525  46.2074 314.0109 15.14326297 10611",
      "drg": -2.643,
      "inc": 97.5017,
      "ran": 155.4724,
      "ecc": 0.0011525,
      "aop": 46.2074,
      "man": 314.0109,
      "mmo": 15.14326297,
      "sma": 6901.16162
   },
   {
      "name": "STARLINK-1782",
      "line1": "1 47548U 21009A   21092.91668981  .00020342  00000-0  22759-3 0  9991",
      "line2": "2 47548  53.0519 201.5547 0003738  13.8259 333.1987 15.62731658  9665",
      "drg": 22.759,
      "inc": 53.0519,
      "ran": 201.5547,
      "ecc": 0.0003738,
      "aop": 13.8259,
      "man": 333.1987,
      "mmo": 15.62731658,
      "sma": 6757.90737
   },
   {
      "name": "STARLINK-1806",
      "line1": "1 47549U 21009B   21092.91668981  .00022598  00000-0  25254-3 0  9990",
      "line2": "2 47549  53.0518 201.5508 0003291   5.5011 342.1755 15.62689652  1762",
      "drg": 25.254,
      "inc": 53.0518,
      "ran": 201.5508,
      "ecc": 0.0003291,
      "aop": 5.5011,
      "man": 342.1755,
      "mmo": 15.62689652,
      "sma": 6758.02847
   },
   {
      "name": "STARLINK-1909",
      "line1": "1 47550U 21009C   21092.91668981  .00023838  00000-0  26569-3 0  9990",
      "line2": "2 47550  53.0536 201.5307 0003147   8.1189 350.3481 15.62723194  9660",
      "drg": 26.569,
      "inc": 53.0536,
      "ran": 201.5307,
      "ecc": 0.0003147,
      "aop": 8.1189,
      "man": 350.3481,
      "mmo": 15.62723194,
      "sma": 6757.93177
   },
   {
      "name": "STARLINK-1938",
      "line1": "1 47551U 21009D   21092.91668981  .00022711  00000-0  25376-3 0  9995",
      "line2": "2 47551  53.0519 201.5907 0003553  10.0806 326.7737 15.62690026  1768",
      "drg": 25.376,
      "inc": 53.0519,
      "ran": 201.5907,
      "ecc": 0.0003553,
      "aop": 10.0806,
      "man": 326.7737,
      "mmo": 15.62690026,
      "sma": 6758.02739
   },
   {
      "name": "STARLINK-1940",
      "line1": "1 47552U 21009E   21092.91668981  .00023214  00000-0  25891-3 0  9997",
      "line2": "2 47552  53.0518 201.5565 0003479  10.1331 335.6280 15.62722184  9669",
      "drg": 25.891,
      "inc": 53.0518,
      "ran": 201.5565,
      "ecc": 0.0003479,
      "aop": 10.1331,
      "man": 335.628,
      "mmo": 15.62722184,
      "sma": 6757.93468
   },
   {
      "name": "STARLINK-1951",
      "line1": "1 47553U 21009F   21092.91668981  .00017994  00000-0  20214-3 0  9990",
      "line2": "2 47553  53.0517 201.5493 0003079  16.5220 331.7857 15.62723197  1767",
      "drg": 20.214,
      "inc": 53.0517,
      "ran": 201.5493,
      "ecc": 0.0003079,
      "aop": 16.522,
      "man": 331.7857,
      "mmo": 15.62723197,
      "sma": 6757.93176
   },
   {
      "name": "STARLINK-1953",
      "line1": "1 47554U 21009G   21092.91668981 -.00003574  00000-0 -72722-4 0  9994",
      "line2": "2 47554  53.0536 205.7395 0001546  36.5952  11.9839 15.42149314  9606",
      "drg": -7.2722,
      "inc": 53.0536,
      "ran": 205.7395,
      "ecc": 0.0001546,
      "aop": 36.5952,
      "man": 11.9839,
      "mmo": 15.42149314,
      "sma": 6817.90415
   },
   {
      "name": "STARLINK-1954",
      "line1": "1 47555U 21009H   21092.91668981  .00018109  00000-0  20353-3 0  9995",
      "line2": "2 47555  53.0532 201.5710 0003275  14.8539 324.5371 15.62705049  9664",
      "drg": 20.353,
      "inc": 53.0532,
      "ran": 201.571,
      "ecc": 0.0003275,
      "aop": 14.8539,
      "man": 324.5371,
      "mmo": 15.62705049,
      "sma": 6757.98408
   },
   {
      "name": "STARLINK-1955",
      "line1": "1 47556U 21009J   21092.91668981 -.00026224  00000-0 -17481-2 0  9992",
      "line2": "2 47556  53.0525 210.0797 0001183  82.1769 246.6842 15.06400879  9541",
      "drg": -174.81,
      "inc": 53.0525,
      "ran": 210.0797,
      "ecc": 0.0001183,
      "aop": 82.1769,
      "man": 246.6842,
      "mmo": 15.06400879,
      "sma": 6925.34586
   }
]